BEIDOU-3 G1             
1 43683U 18085A   24153.58194699 -.00000274  00000+0  00000+0 0  9994
2 43683   2.1540 110.1767 0004203 352.3214 137.5219  1.00266914 20582
GSAT-29                 
1 43698U 18089A   24153.50882663  .00000089  00000+0  00000+0 0  9994
2 43698   0.0250 263.5703 0002330 167.5699  57.5300  1.00268878 20312
ES'HAIL 2               
1 43700U 18090A   24152.77208957  .00000147  00000+0  00000+0 0  9991
2 43700   0.0186 307.2338 0001677 156.3044  89.9760  1.00269291 20192
GEO-KOMPSAT-2A          
1 43823U 18100A   24153.59563448 -.00000340  00000+0  00000+0 0  9995
2 43823   0.0235  92.7587 0001694 341.9264 158.5643  1.00270297 20157
GSAT-11                 
1 43824U 18100B   24153.56885440 -.00000073  00000+0  00000+0 0  9995
2 43824   0.0551 262.1391 0007710 177.7618  89.4220  1.00270976 20009
GSAT-7A                 
1 43864U 18105A   24153.56659182  .00000030  00000+0  00000+0 0  9998
2 43864   0.0301 250.1913 0002394 166.0942 100.9848  1.00270438 19980
COSMOS 2533             
1 43867U 18107A   24153.49645487 -.00000035  00000+0  00000+0 0  9994
2 43867   0.0442 110.8946 0000336 149.0145 239.2798  1.00273051 19958
BREEZE-M R/B            
1 43868U 18107B   24153.31728832 -.00000108  00000+0  00000+0 0  9993
2 43868   5.3074  82.4584 0695912 291.5255  61.0179  0.90469840 17969
TJS-3                   
1 43874U 18110A   24153.58853789  .00000005  00000+0  00000+0 0  9998
2 43874   0.6146  88.9550 0001413  44.2245 142.1898  1.00270038 19947
CHINASAT 2D (ZX 2D)     
1 43920U 19001A   24153.60118888 -.00000333  00000+0  00000+0 0  9992
2 43920   0.0541 120.7774 0001735 121.3679 354.8674  1.00270191 46607
ATLAS 5 CENTAUR DEB     
1 43959U 14055N   24150.28110968 -.00000052  00000+0  00000+0 0  9998
2 43959  19.6972 214.0122 5107319  41.3012 347.8495  1.81427228 38078
ATLAS 5 CENTAUR DEB     
1 43960U 14055P   24151.13893124 -.00000060  00000+0  00000+0 0  9996
2 43960  19.7966 214.8156 5099076  40.5988 348.0418  1.81610123 38056
ATLAS 5 CENTAUR DEB     
1 43966U 14055V   24150.35592391 -.00000041  00000+0  00000+0 0  9996
2 43966  19.7364 210.1596 5113107  48.4044 345.4395  1.83000214 38346
ATLAS 5 CENTAUR DEB     
1 43967U 14055W   24151.46351373 -.00000053  00000+0  00000+0 0  9996
2 43967  19.7806 211.5471 5107720  46.5980 346.0400  1.82845451 38328
ATLAS 5 CENTAUR DEB     
1 43968U 14055X   24152.18014173 -.00000053  00000+0  00000+0 0  9991
2 43968  19.7405 209.3481 5130517  50.2316 344.8626  1.83126597 38381
ATLAS 5 CENTAUR DEB     
1 43969U 14055Y   24124.85852587 -.00000098  00000+0  00000+0 0  9993
2 43969  19.9025 225.7504 5017854  17.7343 354.7795  1.77736630 17603
ATLAS 5 CENTAUR DEB     
1 43974U 14055AD  24143.53509632 -.00000036  00000+0  00000+0 0  9997
2 43974  19.8507 208.5009 4985380  47.8133 345.0282  1.84491014 38564
ATLAS 5 CENTAUR DEB     
1 43981U 14055AL  24151.14811589 -.00000056  00000+0  00000+0 0  9990
2 43981  19.7060 214.6641 5167456  36.9063 349.4997  1.78791179 37404
ATLAS 5 CENTAUR DEB     
1 43982U 14055AM  24146.40467535 -.00000085  00000+0  00000+0 0  9994
2 43982  20.5424 254.6005 4559370 331.9756   9.6332  1.75474999 36607
ATLAS 5 CENTAUR DEB     
1 43996U 14055BB  24152.35222795 -.00000100  00000+0  00000+0 0  9995
2 43996  20.1197 229.6143 4829387  17.0793 354.7807  1.81738533 37450
ATLAS 5 CENTAUR DEB     
1 43998U 14055BD  24151.95505155 -.00000047  00000+0  00000+0 0  9996
2 43998  19.8444 210.2380 5182833  52.3132 344.3724  1.83533231 37609
ATLAS 5 CENTAUR DEB     
1 44007U 14055BN  24143.40276758 -.00000099  00000+0  00000+0 0  9990
2 44007  20.3470 245.5138 4763313 348.0263   3.7783  1.76259420 36311
HELLAS-SAT 4 & SGS-1    
1 44034U 19007A   24152.51507459  .00000156  00000+0  00000+0 0  9992
2 44034   0.0708 123.6866 0005174  10.4742 339.7423  1.00270542 19876
GSAT-31                 
1 44035U 19007B   24153.49210375  .00000128  00000+0  00000+0 0  9998
2 44035   0.0134 300.6916 0001454  18.9264 155.8877  1.00273165 19494
NUSANTARA SATU          
1 44048U 19009A   24152.78452157 -.00000232  00000+0  00000+0 0  9998
2 44048   0.0123  94.9801 0003947  15.2357 207.9772  1.00268428 19280
CHINASAT 6C (ZX 6C)     
1 44067U 19012A   24153.60118888 -.00000332  00000+0  00000+0 0  9996
2 44067   0.0971  99.3741 0002968 309.7356 188.3027  1.00271298 19268
WGS 10 (USA 291)        
1 44071U 19014A   24152.56447205  .00000050  00000+0  00000+0 0  9991
2 44071   0.0128 347.5972 0000282 335.9888 189.4555  1.00269754 19148
TIANLIAN 2-01           
1 44076U 19017A   24153.56902845 -.00000103  00000+0  00000+0 0  9996
2 44076   0.1528 268.4258 0003092 140.6304 123.3565  1.00272159 19176
ATLAS 5 CENTAUR DEB     
1 44107U 14055CC  24146.74794570 -.00000084  00000+0  00000+0 0  9992
2 44107  20.5674 253.4391 4602671 334.8528   8.4976  1.75835884 33300
ARABSAT-6A              
1 44186U 19021A   24153.56015214  .00000157  00000+0  00000+0 0  9996
2 44186   0.0500 340.2036 0002226 127.8470  14.6264  1.00269192 18685
BEIDOU-3 IGSO-1         
1 44204U 19023A   24152.64771215 -.00000240  00000+0  00000+0 0  9991
2 44204  57.6180  45.3963 0018749 210.2901 343.8521  1.00253856 18855
BEIDOU-2 G8             
1 44231U 19027A   24153.59008028 -.00000244  00000+0  00000+0 0  9999
2 44231   1.9109  73.8356 0002617 154.5246  19.1533  1.00269048 18608
YAMAL 601               
1 44307U 19031A   24153.56389411  .00000123  00000+0  00000+0 0  9998
2 44307   0.0158 345.7682 0002188  95.9302  60.8332  1.00272100 18448
AT&T T-16               
1 44333U 19034A   24152.72233385 -.00000112  00000+0  00000+0 0  9994
2 44333   0.0197 307.0794 0001116   3.5685  98.2356  1.00273132 18148
EUTELSAT 7C             
1 44334U 19034B   24153.10882604  .00000052  00000+0  00000+0 0  9994
2 44334   0.0770 185.9896 0003290 227.0746 243.2084  1.00271499 18636
BEIDOU-3 IGSO-2         
1 44337U 19035A   24153.45908674 -.00000050  00000+0  00000+0 0  9991
2 44337  55.1766 165.4057 0033323 209.7912 155.8195  1.00245477 18198
MERIDIAN 8              
1 44453U 19046A   24153.01341855  .00000303  00000+0  00000+0 0  9996
2 44453  62.7078 139.0346 6772637 273.5367  17.4859  2.00622759 35374
FREGAT R/B              
1 44454U 19046B   24148.29297408 -.00000456  00000+0  00000+0 0  9995
2 44454  62.7656 130.1819 6891172 275.0450  16.0417  2.00544355 35381
COSMOS 2539             
1 44457U 19048A   24152.69793618  .00000085  00000+0  00000+0 0  9990
2 44457   0.0423 126.9657 0000710 127.6533 258.3066  1.00273453 17740
BREEZE-M R/B            
1 44458U 19048B   24153.30805935 -.00000112  00000+0  00000+0 0  9998
2 44458   4.7626  80.7040 0709656 109.1202 258.4164  0.90283278 15824
EDRS-C                  
1 44475U 19049A   24153.21839217  .00000158  00000+0  00000+0 0  9997
2 44475   0.0765 255.8234 0000808 150.8913 313.2955  1.00268995 17732
INTELSAT 39 (IS-39)     
1 44476U 19049B   24151.41955748  .00000037  00000+0  00000+0 0  9992
2 44476   0.0179 334.0395 0000172 359.1888 128.1662  1.00269653 17649
AMOS-17                 
1 44479U 19050A   24152.04980047  .00000112  00000+0  00000+0 0  9991
2 44479   0.0361  91.6910 0001636  11.5902 180.6695  1.00271253 17699
AEHF-5 (USA 292)        
1 44481U 19051A   24153.56493838  .00000084  00000+0  00000+0 0  9998
2 44481   2.7453 307.6261 0045430   3.9957 196.9129  1.00276251 17782
CZ-3C DEB               
1 44527U 10057BM  24152.62253207 -.00000120  00000+0  16811-2 0  9998
2 44527  20.6730 329.4843 7183495 106.2494 337.7299  2.23678994 61690
COSMOS 2541             
1 44552U 19065A   24153.04823173 -.00000389  00000+0  00000+0 0  9993
2 44552  62.7930 227.1617 6623231 272.5786  19.1306  2.00583168 34252
FREGAT R/B              
1 44553U 19065B   24152.59817375 -.00000740  00000+0  00000+0 0  9991
2 44553  63.3650 227.3341 6684787 265.2259  21.7301  2.01539998 34451
COSMOS 1897 DEB         
1 44572U 87096G   24153.36529146 -.00000331  00000+0  00000+0 0  9999
2 44572  11.9125 331.4028 0015730 265.0512 275.7863  1.00460336 63494
ARIANE 44LP DEB         
1 44573U 92060J   24153.58507980  .00002175  00000+0  19297-1 0  9990
2 44573   6.5488 249.4143 7216474 207.8609  96.5071  2.22196330 82901
LUCH DEB                
1 44582U 94082G   24153.30525139  .00000089  00000+0  00000+0 0  9994
2 44582  14.6726 359.8585 0023962  86.8760 101.6293  1.00687196 38732
SL-12 DEB               
1 44588U 99027E   24153.46547481 -.00000083  00000+0  00000+0 0  9990
2 44588   6.1389 165.5141 3155749  89.4347  40.2593  1.46014913 56160
EUTELSAT 5 WEST B       
1 44624U 19067A   24153.55301628 -.00000039  00000+0  00000+0 0  9999
2 44624   0.0636   0.0363 0002896  69.7191  14.8565  1.00271234 16979
MEV-1                   
1 44625U 19067B   24152.30952167 -.00000198  00000+0  00000+0 0  9998
2 44625   0.0388 128.5680 0000828 279.1125 285.5698  1.00270435 84093
BREEZE-M R/B            
1 44626U 19067C   24152.90371704 -.00000244  00000+0  00000+0 0  9999
2 44626  16.8151  88.3450 6590010 325.6180   5.6362  0.93852548 14090
TJS-4                   
1 44637U 19070A   24153.55674410 -.00000167  00000+0  00000+0 0  9991
2 44637   0.0573 261.7877 0004500 123.8719 148.8674  1.00270006 17067
ATLAS 5 CENTAUR DEB     
1 44661U 18079X   24153.10892674 -.00000091  00000+0  00000+0 0  9997
2 44661  11.2404 119.9135 4719636 146.4721 255.2029  1.72652387 35717
ATLAS 5 CENTAUR DEB     
1 44664U 18079AA  24151.22155545 -.00000074  00000+0  00000+0 0  9991
2 44664  10.1451 128.8350 5131819 141.9862 268.7531  1.69350528 16563
ATLAS 5 CENTAUR DEB     
1 44673U 18079AK  24151.79537768 -.00000071  00000+0  00000+0 0  9991
2 44673  11.9919 104.6737 4771736 175.1778 191.9707  1.77547845 36590
ATLAS 5 CENTAUR DEB     
1 44679U 18079AR  24153.52541231 -.00000085  00000+0  00000+0 0  9995
2 44679  12.1694 101.0638 4745964 182.1847 174.6141  1.79401895 33299
ATLAS 5 CENTAUR DEB     
1 44680U 18079AS  24150.04477579 -.00000064  00000+0  00000+0 0  9991
2 44680  11.8084 108.9058 4767472 165.8815 214.4325  1.75588872 32308
